{
  "type": "FeatureCollection",
  "features": [
    {
      "type": "Feature",
      "properties": {
        "norad_id": 38091,
        "name": "BEIDOU-2 G5 (C05)",
        "group": "gnss",
        "lat": -0.7766138339196266,
        "lon": -95.04814215432413,
        "alt_km": 35741.95306594269,
        "timestamp": "2025-12-02T08:59:32.956385+00:00",
        "meta_object_name": "BEIDOU-2 G5 (C05)",
        "meta_object_id": "2012-008A",
        "meta_epoch": "2025-12-02T03:47:25.694592",
        "meta_mean_motion": 1.00271964,
        "meta_eccentricity": 0.0012217,
        "meta_inclination": 3.0807,
        "meta_ra_of_asc_node": 70.737,
        "meta_arg_of_pericenter": 225.3992,
        "meta_mean_anomaly": 250.6864,
        "meta_ephemeris_type": 0,
        "meta_classification_type": "U",
        "meta_norad_cat_id": 38091,
        "meta_element_set_no": 999,
        "meta_rev_at_epoch": 5039,
        "meta_bstar": 0,
        "meta_mean_motion_dot": 7.7e-07,
        "meta_mean_motion_ddot": 0,
        "tle_line1": "1 38091U 12008A   25336.15793628  .00000077  00000+0  00000+0 0  9994",
        "tle_line2": "2 38091   3.0807  70.7370 0012217 225.3992 250.6864  1.00271964 50398"
      },
      "geometry": {
        "type": "Point",
        "coordinates": [
          -95.04814215432413,
          -0.7766138339196266
        ]
      }
    },
    {
      "type": "Feature",
      "properties": {
        "norad_id": 38250,
        "name": "BEIDOU-2 M3 (C11)",
        "group": "gnss",
        "lat": 10.825865307357198,
        "lon": 124.05585689195085,
        "alt_km": 21546.447663033592,
        "timestamp": "2025-12-02T08:59:32.956396+00:00",
        "meta_object_name": "BEIDOU-2 M3 (C11)",
        "meta_object_id": "2012-018A",
        "meta_epoch": "2025-12-01T01:13:35.126400",
        "meta_mean_motion": 1.86229725,
        "meta_eccentricity": 0.00245382,
        "meta_inclination": 55.9302,
        "meta_ra_of_asc_node": 311.5507,
        "meta_arg_of_pericenter": 273.3676,
        "meta_mean_anomaly": 86.348,
        "meta_ephemeris_type": 0,
        "meta_classification_type": "U",
        "meta_norad_cat_id": 38250,
        "meta_element_set_no": 999,
        "meta_rev_at_epoch": 9225,
        "meta_bstar": 0,
        "meta_mean_motion_dot": -5.3e-07,
        "meta_mean_motion_ddot": 0,
        "tle_line1": "1 38250U 12018A   25335.05110100 -.00000053  00000+0  00000+0 0  9993",
        "tle_line2": "2 38250  55.9302 311.5507 0024538 273.3676  86.3480  1.86229725 92251"
      },
      "geometry": {
        "type": "Point",
        "coordinates": [
          124.05585689195085,
          10.825865307357198
        ]
      }
    },
    {
      "type": "Feature",
      "properties": {
        "norad_id": 38251,
        "name": "BEIDOU-2 M4 (C12)",
        "group": "gnss",
        "lat": -26.518727445000096,
        "lon": 150.52729822170326,
        "alt_km": 21512.315697576225,
        "timestamp": "2025-12-02T08:59:32.956412+00:00",
        "meta_object_name": "BEIDOU-2 M4 (C12)",
        "meta_object_id": "2012-018B",
        "meta_epoch": "2025-11-30T23:35:43.237248",
        "meta_mean_motion": 1.86229405,
        "meta_eccentricity": 0.00156645,
        "meta_inclination": 55.8317,
        "meta_ra_of_asc_node": 310.7829,
        "meta_arg_of_pericenter": 276.4205,
        "meta_mean_anomaly": 83.3972,
        "meta_ephemeris_type": 0,
        "meta_classification_type": "U",
        "meta_norad_cat_id": 38251,
        "meta_element_set_no": 999,
        "meta_rev_at_epoch": 9225,
        "meta_bstar": 0,
        "meta_mean_motion_dot": -5.3e-07,
        "meta_mean_motion_ddot": 0,
        "tle_line1": "1 38251U 12018B   25334.98313932 -.00000053  00000+0  00000+0 0  9993",
        "tle_line2": "2 38251  55.8317 310.7829 0015664 276.4205  83.3972  1.86229405 92255"
      },
      "geometry": {
        "type": "Point",
        "coordinates": [
          150.52729822170326,
          -26.518727445000096
        ]
      }
    },
    {
      "type": "Feature",
      "properties": {
        "norad_id": 38652,
        "name": "SES-5 (EGNOS/PRN 136)",
        "group": "gnss",
        "lat": -0.08409937882208149,
        "lon": -148.68885580295125,
        "alt_km": 35779.549284717505,
        "timestamp": "2025-12-02T08:59:32.956424+00:00",
        "meta_object_name": "SES-5 (EGNOS/PRN 136)",
        "meta_object_id": "2012-036A",
        "meta_epoch": "2025-12-02T03:32:04.662816",
        "meta_mean_motion": 1.00271679,
        "meta_eccentricity": 0.0002028,
        "meta_inclination": 0.0607,
        "meta_ra_of_asc_node": 301.8693,
        "meta_arg_of_pericenter": 309.7176,
        "meta_mean_anomaly": 237.6761,
        "meta_ephemeris_type": 0,
        "meta_classification_type": "U",
        "meta_norad_cat_id": 38652,
        "meta_element_set_no": 999,
        "meta_rev_at_epoch": 4249,
        "meta_bstar": 0,
        "meta_mean_motion_dot": 5.5e-07,
        "meta_mean_motion_ddot": 0,
        "tle_line1": "1 38652U 12036A   25336.14727619  .00000055  00000+0  00000+0 0  9990",
        "tle_line2": "2 38652   0.0607 301.8693 0002028 309.7176 237.6761  1.00271679 42498"
      },
      "geometry": {
        "type": "Point",
        "coordinates": [
          -148.68885580295125,
          -0.08409937882208149
        ]
      }
    },
    {
      "type": "Feature",
      "properties": {
        "norad_id": 38775,
        "name": "BEIDOU-2 M6 (C14)",
        "group": "gnss",
        "lat": 37.403643424726944,
        "lon": 99.95551987742523,
        "alt_km": 21508.370179541587,
        "timestamp": "2025-12-02T08:59:32.956436+00:00",
        "meta_object_name": "BEIDOU-2 M6 (C14)",
        "meta_object_id": "2012-050B",
        "meta_epoch": "2025-11-30T03:46:17.715072",
        "meta_mean_motion": 1.86230748,
        "meta_eccentricity": 0.00108176,
        "meta_inclination": 56.3677,
        "meta_ra_of_asc_node": 69.4852,
        "meta_arg_of_pericenter": 346.8684,
        "meta_mean_anomaly": 13.1099,
        "meta_ephemeris_type": 0,
        "meta_classification_type": "U",
        "meta_norad_cat_id": 38775,
        "meta_element_set_no": 999,
        "meta_rev_at_epoch": 8960,
        "meta_bstar": 0,
        "meta_mean_motion_dot": -3.1e-07,
        "meta_mean_motion_ddot": 0,
        "tle_line1": "1 38775U 12050B   25334.15714948 -.00000031  00000+0  00000+0 0  9997",
        "tle_line2": "2 38775  56.3677  69.4852 0010817 346.8684  13.1099  1.86230748 89601"
      },
      "geometry": {
        "type": "Point",
        "coordinates": [
          99.95551987742523,
          37.403643424726944
        ]
      }
    },
    {
      "type": "Feature",
      "properties": {
        "norad_id": 38779,
        "name": "GSAT-10 (GAGAN/PRN 128)",
        "group": "gnss",
        "lat": 0.010784611546707193,
        "lon": -70.67451004068106,
        "alt_km": 35796.52339593737,
        "timestamp": "2025-12-02T08:59:32.956448+00:00",
        "meta_object_name": "GSAT-10 (GAGAN/PRN 128)",
        "meta_object_id": "2012-051B",
        "meta_epoch": "2025-12-02T03:54:21.802176",
        "meta_mean_motion": 1.00269269,
        "meta_eccentricity": 0.0002606,
        "meta_inclination": 0.0354,
        "meta_ra_of_asc_node": 262.0904,
        "meta_arg_of_pericenter": 234.6575,
        "meta_mean_anomaly": 76.0892,
        "meta_ephemeris_type": 0,
        "meta_classification_type": "U",
        "meta_norad_cat_id": 38779,
        "meta_element_set_no": 999,
        "meta_rev_at_epoch": 4812,
        "meta_bstar": 0,
        "meta_mean_motion_dot": -1.43e-06,
        "meta_mean_motion_ddot": 0,
        "tle_line1": "1 38779U 12051B   25336.16275234 -.00000143  00000+0  00000+0 0  9999",
        "tle_line2": "2 38779   0.0354 262.0904 0002606 234.6575  76.0892  1.00269269 48129"
      },
      "geometry": {
        "type": "Point",
        "coordinates": [
          -70.67451004068106,
          0.010784611546707193
        ]
      }
    },
    {
      "type": "Feature",
      "properties": {
        "norad_id": 38833,
        "name": "GPS BIIF-3  (PRN 24)",
        "group": "gnss",
        "lat": -3.8281170255022947,
        "lon": 148.820713173769,
        "alt_km": 20005.98281616578,
        "timestamp": "2025-12-02T08:59:32.956459+00:00",
        "meta_object_name": "GPS BIIF-3  (PRN 24)",
        "meta_object_id": "2012-053A",
        "meta_epoch": "2025-12-01T21:10:58.228032",
        "meta_mean_motion": 2.00564835,
        "meta_eccentricity": 0.0175482,
        "meta_inclination": 53.5559,
        "meta_ra_of_asc_node": 151.6834,
        "meta_arg_of_pericenter": 63.8436,
        "meta_mean_anomaly": 297.9871,
        "meta_ephemeris_type": 0,
        "meta_classification_type": "U",
        "meta_norad_cat_id": 38833,
        "meta_element_set_no": 999,
        "meta_rev_at_epoch": 9548,
        "meta_bstar": 0,
        "meta_mean_motion_dot": 1.16e-06,
        "meta_mean_motion_ddot": 0,
        "tle_line1": "1 38833U 12053A   25335.88261838  .00000116  00000+0  00000+0 0  9994",
        "tle_line2": "2 38833  53.5559 151.6834 0175482  63.8436 297.9871  2.00564835 95486"
      },
      "geometry": {
        "type": "Point",
        "coordinates": [
          148.820713173769,
          -3.8281170255022947
        ]
      }
    }
  ]
}